POPACS 2                
1 39269U 13055E   26068.50954283  .00029878  00000+0  51935-3 0  9990
2 39269  80.9893 258.0384 0430745 153.4128 208.9906 14.87802959648370
STARLINK-34490          
1 64478U 25133G   26068.44754222  .00068461  00000+0  22967-2 0  9997
2 64478  53.1602 117.7617 0001531  84.3428 275.7747 15.30280782 41153
