[{"OBJECT_NAME":"POPACS 2","OBJECT_ID":"2013-055E","EPOCH":"2026-03-09T12:13:44.500512","MEAN_MOTION":14.87802959,"ECCENTRICITY":0.04307455,"INCLINATION":80.9893,"RA_OF_ASC_NODE":258.0384,"ARG_OF_PERICENTER":153.4128,"MEAN_ANOMALY":208.9906,"EPHEMERIS_TYPE":0,"CLASSIFICATION_TYPE":"U","NORAD_CAT_ID":39269,"ELEMENT_SET_NO":999,"REV_AT_EPOCH":64837,"BSTAR":0.00051934698,"MEAN_MOTION_DOT":0.00029878,"MEAN_MOTION_DDOT":0},{"OBJECT_NAME":"STARLINK-34490","OBJECT_ID":"2025-133G","EPOCH":"2026-03-09T10:44:27.647808","MEAN_MOTION":15.30280782,"ECCENTRICITY":0.00015318,"INCLINATION":53.1602,"RA_OF_ASC_NODE":117.7617,"ARG_OF_PERICENTER":84.3428,"MEAN_ANOMALY":275.7747,"EPHEMERIS_TYPE":0,"CLASSIFICATION_TYPE":"U","NORAD_CAT_ID":64478,"ELEMENT_SET_NO":999,"REV_AT_EPOCH":4115,"BSTAR":0.0022966574,"MEAN_MOTION_DOT":0.00068461,"MEAN_MOTION_DDOT":0}]
